<!doctype html>

<html>

<head>

<title>TLE for NORAD Catalog Number 44280</title>

</head>

<body>

<pre>
STARLINK-38             
1 44280U 19029AX  19301.93249304  .00001803  00000-0  14326-3 0  9998
2 44280  53.0016 183.4193 0002502  86.7602 273.3672 15.05482275 23152

</pre>
	
</body>

</html>
